OSCAR 7 (AO-7)          
1 07530U 74089B   26155.29739885 -.00000046  00000+0  32849-5 0  9994
2 07530 101.9902 168.4095 0012424 154.1272 275.7065 12.53697884358907
PHASE 3B (AO-10)        
1 14129U 83058B   26153.31656221  .00000070  00000+0  00000+0 0  9999
2 14129  25.9022 222.0290 6015956 111.5768 320.3605  2.05871181295184
UOSAT 2 (UO-11)         
1 14781U 84021B   26155.73688472  .00001488  00000+0  15713-3 0  9990
2 14781  97.8050 121.4515 0006537 216.3990 143.6784 14.90752353255275
LUSAT (LO-19)           
1 20442U 90005G   26155.27473537  .00000150  00000+0  70342-4 0  9998
2 20442  98.8853 176.7242 0010549 241.5531 118.4591 14.34119202900548
EYESAT A (AO-27)        
1 22825U 93061C   26155.41356179  .00000144  00000+0  71712-4 0  9993
2 22825  98.6882 222.8313 0009266 133.0748 227.1211 14.30938864705174
ITAMSAT (IO-26)         
1 22826U 93061D   26155.74629929  .00000124  00000+0  63675-4 0  9993
2 22826  98.6830 223.0802 0010009 117.4868 242.7334 14.31365298705535
RADIO ROSTO (RS15)      
1 23439U 94085A   26155.87688769 -.00000049  00000+0 -19760-3 0  9995
2 23439  64.8178 323.1257 0155573   6.1499 354.1289 11.27583581294519
JAS-2 (FO-29)           
1 24278U 96046B   26155.81606465 -.00000028  00000+0  42460-5 0  9994
2 24278  98.5250   6.3824 0350675 128.4539 234.8624 13.53273622471493
TECHSAT 1B (GO-32)      
1 25397U 98043D   26154.57772251  .00000069  00000+0  49972-4 0  9993
2 25397  99.0064 146.9934 0000319 213.6137 146.5021 14.24425649449397
ISS (ZARYA)             
1 25544U 98067A   26155.74133726  .00008168  00000+0  15298-3 0  9992
2 25544  51.6329   1.7083 0007031 132.5880 227.5703 15.49603626569823
PCSAT (NO-44)           
1 26931U 01043C   26155.79666333  .00000169  00000+0  93859-4 0  9994
2 26931  67.0513 276.3185 0006103 264.1121  95.9285 14.31951574288673
SAUDISAT 1C (SO-50)     
1 27607U 02058C   26155.41047091  .00001212  00000+0  15984-3 0  9997
2 27607  64.5504 168.5155 0075504 264.8060  94.4426 14.83018633262563
CUTE-1 (CO-55)          
1 27844U 03031E   26154.54951729  .00000336  00000+0  16425-3 0  9994
2 27844  98.6736 163.2800 0008690 219.4250 140.6297 14.24327019189732
CUBESAT XI-IV (CO-57)   
1 27848U 03031J   26152.00092913  .00000288  00000+0  14576-3 0  9999
2 27848  98.6768 160.4891 0008288 248.3946 111.6350 14.23611465189071
MOZHAETS 4 (RS22)       
1 27939U 03042A   26155.99963942  .00001093  00000+0  17672-3 0  9997
2 27939  98.3466 340.0143 0010350 313.0721 166.4544 14.73445593213752
CUBESAT XI-V            
1 28895U 05043F   26152.36703129  .00001677  00000+0  27161-3 0  9991
2 28895  98.2967 307.6587 0012837 254.1655 105.8136 14.72584583 99425
CUTE-1.7+APD II (CO-65) 
1 32785U 08021C   26155.78564840  .00005470  00000+0  34665-3 0  9999
2 32785  97.8272 136.9481 0010629  75.0283 285.2121 15.09327277983326
SEEDS II (CO-66)        
1 32791U 08021J   26154.55442507  .00020146  00000+0  64842-3 0  9992
2 32791  97.7515 151.8069 0002991  42.0128 318.1342 15.32257900985206
YUBILEINY (RS30)        
1 32953U 08025A   26155.94627736  .00000015  00000+0  33808-4 0  9991
2 32953  82.5044   3.0563 0019371 341.2963  18.7403 12.43178781818173
KKS-1 (KISEKI)          
1 33499U 09002H   26155.84269687  .00001684  00000+0  21356-3 0  9996
2 33499  98.1193  78.0894 0007348 341.1315  18.9625 14.83091539934366
SWISSCUBE               
1 35932U 09051B   26154.27980436  .00001220  00000+0  25059-3 0  9992
2 35932  98.4045  61.9256 0005398 254.9932 105.0671 14.62453382887126
BEESAT-1                
1 35933U 09051C   26154.62429402  .00000980  00000+0  20663-3 0  9991
2 35933  98.3973  61.9398 0003909 272.0464  88.0289 14.61697093887202
ITUPSAT1                
1 35935U 09051E   26155.69953963  .00000958  00000+0  20796-3 0  9997
2 35935  98.4056  62.2366 0006134 280.9538  79.0971 14.60421767886916
XIWANG-1 (HOPE-1)       
1 36122U 09072B   26155.85602716 -.00000136  00000+0 -23975-3 0  9996
2 36122 100.4026 109.8856 0006791 262.8970  97.1371 13.16437636791389
O/OREOS (USA 219)       
1 37224U 10062C   26155.53866293  .00002928  00000+0  28218-3 0  9992
2 37224  71.9702 108.9883 0012354  90.8260 269.4326 14.93687553114754
JUGNU                   
1 37839U 11058B   26152.07859182  .00000456  00000+0  98509-4 0  9990
2 37839  19.9618  46.2876 0018499 258.1927 242.1590 14.13771859756742
SRMSAT                  
1 37841U 11058D   26155.28992141  .00000393  00000+0  69540-4 0  9995
2 37841  19.9702 137.5332 0011913  62.8275  26.7062 14.11572942755996
STRAND-1                
1 39090U 13009E   26155.03670315  .00000293  00000+0  11292-3 0  9999
2 39090  98.3918 335.5952 0007387 270.6143  89.4198 14.37155097695170
ZACUBE-1 (TSHEPISOSAT)  
1 39417U 13066B   26154.94254392  .00004510  00000+0  35148-3 0  9999
2 39417  97.8107 117.2078 0039903 294.5657  65.1411 15.01095965678747
GOMX-1                  
1 39430U 13066Q   26155.92891786  .00002521  00000+0  38155-3 0  9998
2 39430  97.6488 357.1650 0130016 116.4594 245.0019 14.69412184668114
